{
    "links": {
        "self": "http://www.neowsapp.com/rest/v1/neo/3591758?api_key=iIulBulltgU6a56xZRHN4H3l9WmuAYTsLGpBGhQ2"
    },
    "id": "3591758",
    "neo_reference_id": "3591758",
    "name": "(2011 YD40)",
    "designation": "2011 YD40",
    "nasa_jpl_url": "http://ssd.jpl.nasa.gov/sbdb.cgi?sstr=3591758",
    "absolute_magnitude_h": 21.0,
    "estimated_diameter": {
        "kilometers": {
            "estimated_diameter_min": 0.1677084622,
            "estimated_diameter_max": 0.3750075218
        },
        "meters": {
            "estimated_diameter_min": 167.7084621628,
            "estimated_diameter_max": 375.0075217981
        },
        "miles": {
            "estimated_diameter_min": 0.1042091748,
            "estimated_diameter_max": 0.2330187988
        },
        "feet": {
            "estimated_diameter_min": 550.2246310023,
            "estimated_diameter_max": 1230.3396778159
        }
    },
    "is_potentially_hazardous_asteroid": false,
    "close_approach_data": [
        {
            "close_approach_date": "2016-12-28",
            "close_approach_date_full": "2016-Dec-28 09:21",
            "epoch_date_close_approach": 1482916860000,
            "relative_velocity": {
                "kilometers_per_second": "17.5296803631",
                "kilometers_per_hour": "63106.8493071161",
                "miles_per_hour": "39212.1420041911"
            },
            "miss_distance": {
                "astronomical": "0.4986348318",
                "lunar": "193.9689495702",
                "kilometers": "74594708.745088266",
                "miles": "46351002.6896434308"
            },
            "orbiting_body": "Earth"
        }
    ],
    "orbital_data": {
        "orbit_id": "7",
        "orbit_determination_date": "2017-04-06 08:51:38",
        "first_observation_date": "2011-12-29",
        "last_observation_date": "2012-01-29",
        "data_arc_in_days": 31,
        "observations_used": 32,
        "orbit_uncertainty": "7",
        "minimum_orbit_intersection": ".497791",
        "jupiter_tisserand_invariant": "3.741",
        "epoch_osculation": "2459000.5",
        "eccentricity": ".3083890285418033",
        "semi_major_axis": "1.856821007289384",
        "inclination": "34.27075689140143",
        "ascending_node_longitude": "293.5954464507758",
        "orbital_period": "924.1734509199755",
        "perihelion_distance": "1.284197780675398",
        "perihelion_argument": "105.4754452942625",
        "aphelion_distance": "2.429444233903369",
        "perihelion_time": "2458601.052437334362",
        "mean_anomaly": "155.5997117386154",
        "mean_motion": ".3895372666696227",
        "equinox": "J2000",
        "orbit_class": {
            "orbit_class_type": "AMO",
            "orbit_class_description": "Near-Earth asteroid orbits similar to that of 1221 Amor",
            "orbit_class_range": "1.017 AU < q (perihelion) < 1.3 AU"
        }
    },
    "is_sentry_object": false
}